{"type":"FeatureCollection","features":[{"type":"Feature","properties":{"_gpxType":"trk","name":"Ibon de Acherito - Wikiloc","coordinateProperties":{"Extensionss":["\n              track\n            ","\n              path\n              mountain_hiking\n            ","\n              path\n              mountain_hiking\n            ","\n              path\n              mountain_hiking\n            ","\n              path\n              mountain_hiking\n            ","\n              path\n              mountain_hiking\n            ","\n              path\n              mountain_hiking\n            ","\n              path\n              mountain_hiking\n            ","\n              path\n              mountain_hiking\n            ","\n              path\n              mountain_hiking\n            ","\n              path\n              mountain_hiking\n            ","\n              path\n              mountain_hiking\n            ","\n              path\n              mountain_hiking\n            ","\n              path\n              mountain_hiking\n            ","\n              path\n              mountain_hiking\n            ","\n              path\n              mountain_hiking\n            ","\n              path\n              mountain_hiking\n            ","\n              path\n              mountain_hiking\n            ","\n              path\n              mountain_hiking\n            ","\n              path\n              mountain_hiking\n            ","\n              path\n              mountain_hiking\n            ","\n              path\n              mountain_hiking\n            ","\n              path\n              mountain_hiking\n            ","\n              path\n              mountain_hiking\n            ","\n              path\n              mountain_hiking\n            ","\n              path\n              mountain_hiking\n            ","\n              path\n              mountain_hiking\n            ","\n              path\n              mountain_hiking\n            ","\n              path\n              mountain_hiking\n            ","\n              path\n              mountain_hiking\n            ","\n              path\n              mountain_hiking\n            ","\n              path\n              mountain_hiking\n            ","\n              path\n              mountain_hiking\n            ","\n              path\n              mountain_hiking\n            ","\n              path\n              mountain_hiking\n            ","\n              path\n              mountain_hiking\n            ","\n              path\n              mountain_hiking\n            ","\n              path\n              mountain_hiking\n            ","\n              path\n              mountain_hiking\n            ","\n              path\n            ","\n              path\n            ","\n              path\n            ","\n              path\n            ","\n              path\n            ","\n              path\n            ","\n              path\n            ","\n              path\n            ","\n              path\n            ","\n              path\n            ","\n              path\n            ","\n              path\n            ","\n              path\n            ","\n              path\n            ","\n              path\n            ","\n              path\n            ","\n              path\n            ","\n              path\n            ","\n              path\n            ","\n              path\n            ","\n              path\n            ","\n              path\n            ","\n              path\n            ","\n              path\n            ","\n              path\n            ","\n              path\n            ","\n              path\n            ","\n              path\n            ","\n              path\n            ","\n              path\n            ","\n              path\n            ","\n              path\n            ","\n              path\n            ","\n              path\n            ","\n              path\n            ","\n              path\n            ","\n              path\n            ","\n              path\n            ","\n              path\n            ","\n              path\n            ","\n              path\n            ","\n              path\n              mountain_hiking\n            ","\n              path\n              mountain_hiking\n            ","\n              path\n              mountain_hiking\n            ","\n              path\n              mountain_hiking\n            ","\n              path\n              mountain_hiking\n            ","\n              path\n              mountain_hiking\n            ","\n              path\n              mountain_hiking\n            ","\n              path\n              mountain_hiking\n            ","\n              path\n              mountain_hiking\n            ","\n              path\n              mountain_hiking\n            ","\n              path\n              mountain_hiking\n            ","\n              path\n              mountain_hiking\n            ","\n              path\n              mountain_hiking\n            ","\n              path\n              mountain_hiking\n            ","\n              path\n              mountain_hiking\n            ","\n              path\n              mountain_hiking\n            ","\n              path\n              mountain_hiking\n            ","\n              path\n              mountain_hiking\n            ","\n              path\n              mountain_hiking\n            ","\n              path\n              mountain_hiking\n            ","\n              path\n              mountain_hiking\n            ","\n              path\n              mountain_hiking\n            ","\n              path\n              mountain_hiking\n            ","\n              path\n              mountain_hiking\n            ","\n              path\n              mountain_hiking\n            ","\n              path\n              mountain_hiking\n            ","\n              path\n              mountain_hiking\n            ","\n              path\n              mountain_hiking\n            ","\n              path\n              mountain_hiking\n            ","\n              path\n              mountain_hiking\n            ","\n              path\n              mountain_hiking\n            ","\n              path\n              mountain_hiking\n            ","\n              path\n              mountain_hiking\n            ","\n              path\n              mountain_hiking\n            ","\n              path\n              mountain_hiking\n            ","\n              path\n              mountain_hiking\n            ","\n              path\n              mountain_hiking\n            ","\n              path\n              mountain_hiking\n            ","\n              path\n              mountain_hiking\n            ","\n              path\n              mountain_hiking\n            ","\n              path\n              mountain_hiking\n            ","\n              path\n              mountain_hiking\n            ","\n              path\n              mountain_hiking\n            ","\n              path\n              mountain_hiking\n            ","\n              path\n              mountain_hiking\n            ","\n              path\n              mountain_hiking\n            ","\n              path\n              mountain_hiking\n            ","\n              path\n              mountain_hiking\n            ","\n              path\n              mountain_hiking\n            ","\n              path\n              mountain_hiking\n            ","\n              path\n              mountain_hiking\n            ","\n              path\n              mountain_hiking\n            ","\n              path\n              mountain_hiking\n            ","\n              path\n              mountain_hiking\n            ","\n              path\n              mountain_hiking\n            ","\n              path\n              mountain_hiking\n            ","\n              path\n              mountain_hiking\n            ","\n              path\n              mountain_hiking\n            ","\n              path\n              mountain_hiking\n            ","\n              path\n              mountain_hiking\n            ","\n              path\n              mountain_hiking\n            ","\n              path\n              mountain_hiking\n            ","\n              path\n              mountain_hiking\n            ","\n              path\n              mountain_hiking\n            ","\n              path\n              mountain_hiking\n            ","\n              path\n              mountain_hiking\n            ","\n              path\n              mountain_hiking\n            ","\n              path\n              mountain_hiking\n            ","\n              path\n              mountain_hiking\n            ","\n              path\n            ","\n              path\n            ","\n              path\n            ","\n              path\n            ","\n              path\n            ","\n              path\n            ","\n              path\n            ","\n              path\n            ","\n              path\n            ","\n              path\n            ","\n              path\n            ","\n              path\n            ","\n              path\n            ","\n              path\n            ","\n              path\n            ","\n              path\n            ","\n              path\n            ","\n              path\n            ","\n              path\n            ","\n              path\n            ","\n              path\n            ","\n              path\n            ","\n              path\n            ","\n              path\n            ","\n              path\n            ","\n              path\n            ","\n              path\n            ","\n              path\n            ","\n              path\n            ","\n              path\n            ","\n              path\n            ","\n              path\n            ","\n              path\n            ","\n              path\n            ","\n              path\n            ","\n              path\n            ","\n              path\n            ","\n              path\n            ","\n              path\n            ","\n              path\n            ","\n              path\n            ","\n              path\n            ","\n              path\n            ","\n              path\n            ","\n              path\n            ","\n              path\n            ","\n              path\n            ","\n              path\n            ","\n              path\n            ","\n              path\n            ","\n              path\n            ","\n              path\n            ","\n              path\n            ","\n              path\n            ","\n              path\n            ","\n              path\n            ","\n              path\n            ","\n              path\n            ","\n              path\n            ","\n              path\n            ","\n              path\n            ","\n              path\n            ","\n              path\n            ","\n              path\n            ","\n              path\n            ","\n              path\n            ","\n              path\n            ","\n              path\n            ","\n              path\n            ","\n              path\n            ","\n              path\n            ","\n              path\n            ","\n              path\n            ","\n              path\n            ","\n              path\n            ","\n              path\n            ","\n              path\n            ","\n              path\n            ","\n              path\n            ","\n              path\n            ","\n              path\n            ","\n              path\n            ","\n              path\n            ","\n              path\n            ","\n              path\n            ","\n              path\n            ","\n              path\n            ","\n              path\n            ","\n              path\n            ","\n              path\n            ","\n              path\n            ","\n              path\n            ","\n              path\n            ","\n              path\n            ","\n              path\n            ","\n              path\n            ","\n              path\n            ","\n              path\n            ","\n              path\n            ","\n              path\n            ","\n              path\n            ","\n              path\n            ","\n              path\n            ","\n              path\n            ","\n              path\n            ","\n              path\n            ","\n              path\n            ","\n              path\n            ","\n              path\n            ","\n              path\n            ","\n              path\n            ","\n              path\n            ","\n              path\n            ","\n              path\n            ","\n              path\n            ","\n              path\n            ","\n              path\n            ","\n              path\n            ","\n              path\n            ","\n              path\n            ","\n              path\n            ","\n              path\n            ","\n              path\n            ","\n              path\n            ","\n              path\n            ","\n              path\n            ","\n              path\n            ","\n              path\n            ","\n              path\n            ","\n              path\n            ","\n              path\n            ","\n              path\n            ","\n              path\n            ","\n              path\n            ","\n              path\n            ","\n              path\n            ","\n              path\n            ","\n              path\n            ","\n              path\n            ","\n              path\n            ","\n              path\n            ","\n              path\n            ","\n              path\n            ","\n              path\n            ","\n              path\n            ","\n              path\n            ","\n              path\n            ","\n              path\n            ","\n              path\n            ","\n              path\n            ","\n              path\n            ","\n              path\n            ","\n              path\n            ","\n              path\n            ","\n              path\n            ","\n              path\n            ","\n              path\n            ","\n              path\n            ","\n              path\n            ","\n              path\n            ","\n              path\n            ","\n              path\n            ","\n              path\n            ","\n              path\n            ","\n              path\n            ","\n              path\n            ","\n              path\n            ","\n              path\n            ","\n              path\n            ","\n              path\n            ","\n              path\n            ","\n              path\n            ","\n              path\n            ","\n              path\n            ","\n              path\n            ","\n              path\n            ","\n              path\n            ","\n              path\n            ","\n              path\n            ","\n              path\n            ","\n              path\n            ","\n              path\n            ","\n              path\n            ","\n              path\n            ","\n              path\n            ","\n              path\n            ","\n              path\n            ","\n              path\n            ","\n              path\n            ","\n              path\n            ","\n              path\n            ","\n              path\n            ","\n              path\n            ","\n              path\n            ","\n              path\n            ","\n              path\n            ","\n              path\n            ","\n              path\n            ","\n              path\n            ","\n              path\n              mountain_hiking\n            ","\n              path\n              mountain_hiking\n            ","\n              path\n              mountain_hiking\n            ","\n              path\n              mountain_hiking\n            ","\n              path\n              mountain_hiking\n            ","\n              path\n              mountain_hiking\n            ","\n              path\n              mountain_hiking\n            ","\n              path\n              mountain_hiking\n            ","\n              path\n              mountain_hiking\n            ","\n              path\n              mountain_hiking\n            ","\n              path\n              mountain_hiking\n            ","\n              path\n              mountain_hiking\n            ","\n              path\n              mountain_hiking\n            ","\n              path\n              mountain_hiking\n            ","\n              path\n              mountain_hiking\n            ","\n              path\n              mountain_hiking\n            ","\n              path\n              mountain_hiking\n            ","\n              path\n              mountain_hiking\n            ","\n              path\n              mountain_hiking\n            ","\n              path\n              mountain_hiking\n            ","\n              path\n              mountain_hiking\n            ","\n              path\n              mountain_hiking\n            ","\n              path\n              mountain_hiking\n            ","\n              path\n              mountain_hiking\n            ","\n              path\n              mountain_hiking\n            ","\n              path\n              mountain_hiking\n            ","\n              path\n              mountain_hiking\n            ","\n              path\n              mountain_hiking\n            ","\n              path\n              mountain_hiking\n            ","\n              path\n              mountain_hiking\n            ","\n              path\n              mountain_hiking\n            ","\n              path\n              mountain_hiking\n            ","\n              path\n              mountain_hiking\n            ","\n              path\n              mountain_hiking\n            ","\n              path\n              mountain_hiking\n            ","\n              path\n              mountain_hiking\n            ","\n              path\n              mountain_hiking\n            ","\n              path\n              mountain_hiking\n            ","\n              path\n              mountain_hiking\n            ","\n              path\n              mountain_hiking\n            ","\n              path\n              mountain_hiking\n            ","\n              path\n              mountain_hiking\n            ","\n              path\n              mountain_hiking\n            ","\n              path\n              mountain_hiking\n            ","\n              path\n              mountain_hiking\n            ","\n              path\n              mountain_hiking\n            ","\n              path\n              mountain_hiking\n            ","\n              path\n              mountain_hiking\n            ","\n              path\n              mountain_hiking\n            ","\n              path\n              mountain_hiking\n            ","\n              path\n              mountain_hiking\n            ","\n              path\n              mountain_hiking\n            ","\n              path\n              mountain_hiking\n            ","\n              path\n              mountain_hiking\n            ","\n              path\n              mountain_hiking\n            ","\n              path\n              mountain_hiking\n            ","\n              path\n              mountain_hiking\n            ","\n              path\n              mountain_hiking\n            ","\n              path\n              mountain_hiking\n            ","\n              path\n              mountain_hiking\n            ","\n              path\n              mountain_hiking\n            ","\n              path\n              mountain_hiking\n            ","\n              path\n              mountain_hiking\n            ","\n              path\n              mountain_hiking\n            ","\n              path\n              mountain_hiking\n            ","\n              path\n              mountain_hiking\n            ","\n              path\n              mountain_hiking\n            ","\n              path\n              mountain_hiking\n            ","\n              path\n              mountain_hiking\n            ","\n              path\n              mountain_hiking\n            ","\n              path\n              mountain_hiking\n            ","\n              path\n              mountain_hiking\n            ","\n              path\n              mountain_hiking\n            ","\n              path\n              mountain_hiking\n            ","\n              path\n              mountain_hiking\n            ","\n              path\n              mountain_hiking\n            ","\n              path\n              mountain_hiking\n            ","\n              path\n              mountain_hiking\n            ","\n              path\n              mountain_hiking\n            ","\n              path\n              mountain_hiking\n            ","\n              path\n              mountain_hiking\n            ","\n              path\n              mountain_hiking\n            ","\n              path\n              mountain_hiking\n            ","\n              path\n              mountain_hiking\n            ","\n              track\n            ","\n              track\n            ","\n              track\n            "]}},"geometry":{"type":"LineString","coordinates":[[-0.69693,42.855113,1228.0916],[-0.696975,42.855135,1227.851321],[-0.69674,42.855288,1230.572311],[-0.696704,42.855525,1233.122183],[-0.696627,42.855622,1234.456209],[-0.696614,42.855668,1235.002476],[-0.696614,42.855668,1235.002476],[-0.696614,42.855668,1235.002476],[-0.696549,42.855893,1239.657617],[-0.696472,42.856165,1248.428158],[-0.696321,42.856401,1255.93558],[-0.696359,42.856534,1254.844324],[-0.696311,42.856782,1257.862936],[-0.696398,42.85713,1260.142974],[-0.696398,42.85713,1260.142974],[-0.696402,42.857148,1260.410835],[-0.69659,42.857305,1257.239204],[-0.696804,42.857749,1269.25073],[-0.697255,42.858178,1272.911612],[-0.697351,42.858469,1276.308992],[-0.697333,42.858694,1279.715985],[-0.697298,42.859145,1291.718178],[-0.697156,42.859343,1299.317306],[-0.697156,42.859343,1299.317306],[-0.697078,42.859452,1300.339276],[-0.696938,42.859735,1301.549444],[-0.696724,42.859873,1307.967771],[-0.696498,42.86036,1311.695526],[-0.696236,42.860581,1318.255959],[-0.696064,42.860797,1323.128029],[-0.695951,42.861017,1326.89096],[-0.695651,42.861414,1338.54719],[-0.695495,42.861725,1345.784332],[-0.695345,42.861855,1350.314377],[-0.695141,42.862228,1357.618703],[-0.694932,42.86233,1362.784614],[-0.694733,42.862531,1368.460474],[-0.69454,42.862849,1371.851977],[-0.694524,42.862945,1372.234749],[-0.694403,42.863033,1376.335293],[-0.694373,42.863127,1376.381713],[-0.694088,42.86334,1383.869567],[-0.694082,42.863444,1383.083121],[-0.694089,42.863456,1382.767897],[-0.694089,42.863456,1382.767897],[-0.694135,42.863534,1381.330833],[-0.69422,42.86363,1381.838142],[-0.694325,42.863652,1384.186141],[-0.694293,42.863833,1388.683217],[-0.694344,42.864174,1400.019292],[-0.694214,42.864451,1408.039659],[-0.69395,42.864624,1410.286939],[-0.693686,42.864797,1419.836693],[-0.693557,42.864904,1422.532156],[-0.693519,42.865024,1429.53707],[-0.693405,42.865069,1432.05788],[-0.693064,42.865257,1445.053591],[-0.692893,42.865338,1445.321874],[-0.692862,42.865433,1448.392884],[-0.692824,42.865511,1451.304585],[-0.692987,42.865514,1456.875167],[-0.693072,42.865576,1461.568835],[-0.693019,42.865625,1463.519211],[-0.693078,42.865694,1467.675944],[-0.692929,42.865856,1473.566407],[-0.692723,42.866117,1483.303042],[-0.692541,42.866201,1484.761473],[-0.692401,42.866297,1487.990708],[-0.692324,42.866453,1495.811992],[-0.692168,42.86661,1502.539628],[-0.691721,42.866973,1517.749501],[-0.691498,42.867154,1526.814731],[-0.690912,42.867391,1541.788474],[-0.690619,42.867509,1551.181737],[-0.690641,42.867558,1554.18906],[-0.690904,42.867682,1559.123522],[-0.691168,42.867805,1567.078355],[-0.690909,42.86788,1571.926976],[-0.69065,42.867955,1580.418011],[-0.690297,42.868004,1589.38356],[-0.690011,42.86795,1594.37571],[-0.689964,42.868035,1599.31161],[-0.690216,42.868307,1605.368036],[-0.690192,42.868443,1611.263037],[-0.6903,42.868476,1611.998128],[-0.6903,42.868476,1611.998128],[-0.690683,42.868594,1618.501624],[-0.690936,42.868501,1618.448261],[-0.691305,42.868509,1618.91973],[-0.691675,42.868516,1620.939443],[-0.692373,42.868602,1635.743854],[-0.692978,42.868765,1652.292746],[-0.693335,42.868798,1657.553785],[-0.69405,42.868865,1675.607819],[-0.694407,42.868898,1683.067272],[-0.695053,42.868901,1689.566347],[-0.695356,42.868951,1695.394201],[-0.69566,42.869001,1698.40495],[-0.696013,42.868957,1702.376586],[-0.696367,42.868912,1712.846394],[-0.696997,42.868653,1723.797217],[-0.697344,42.868633,1735.927143],[-0.697692,42.868612,1744.492631],[-0.697731,42.868678,1746.844153],[-0.697731,42.868678,1746.844153],[-0.697854,42.868884,1751.669938],[-0.698016,42.869155,1754.788825],[-0.698341,42.869698,1757.993444],[-0.698616,42.870144,1761.686328],[-0.698733,42.870217,1760.673381],[-0.699119,42.870655,1768.366739],[-0.699398,42.870733,1767.654176],[-0.699673,42.87087,1771.819099],[-0.700223,42.871143,1774.531454],[-0.700466,42.871366,1782.973996],[-0.700609,42.871388,1780.947946],[-0.700868,42.871626,1788.584621],[-0.701388,42.872102,1798.923201],[-0.701536,42.872406,1811.312867],[-0.701635,42.872571,1814.592732],[-0.701939,42.872784,1816.6748],[-0.702217,42.872889,1819.225907],[-0.70251,42.872844,1817.799446],[-0.702803,42.872799,1819.477001],[-0.703266,42.872983,1834.169913],[-0.703509,42.872965,1835.023841],[-0.703681,42.873032,1837.272352],[-0.704123,42.87337,1846.546432],[-0.704505,42.873475,1852.425921],[-0.704793,42.873765,1858.808278],[-0.705328,42.874198,1860.034511],[-0.705585,42.87454,1857.315385],[-0.705819,42.874773,1856.303288],[-0.705955,42.875056,1856.334143],[-0.706091,42.875339,1855.31791],[-0.70615,42.875541,1856.916322],[-0.706424,42.875838,1854.416929],[-0.706746,42.876106,1855.739104],[-0.706848,42.876317,1858.689841],[-0.706907,42.876698,1857.702941],[-0.70703,42.876914,1855.167208],[-0.707401,42.87719,1859.043579],[-0.707977,42.877536,1864.450017],[-0.708189,42.87775,1872.404389],[-0.708155,42.878072,1878.329184],[-0.708163,42.878336,1876.536649],[-0.708478,42.878583,1873.791317],[-0.708651,42.878613,1874.660159],[-0.708928,42.878505,1874.991807],[-0.709409,42.87849,1870.98079],[-0.709517,42.878301,1870.159647],[-0.709685,42.878176,1870.011445],[-0.709771,42.878146,1870.441316],[-0.710078,42.878105,1867.811213],[-0.710246,42.878102,1866.732654],[-0.710465,42.878146,1867.166003],[-0.710756,42.87818,1869.289708],[-0.711069,42.878193,1872.874567],[-0.711613,42.878309,1873.528079],[-0.711745,42.878386,1874.571502],[-0.711936,42.878544,1872.916148],[-0.712128,42.878701,1872.034553],[-0.712331,42.879094,1865.234641],[-0.71259,42.879432,1854.980311],[-0.712635,42.879562,1854.280983],[-0.712674,42.879808,1851.306943],[-0.712803,42.880209,1850.294998],[-0.712863,42.880526,1853.117],[-0.712935,42.880616,1852.237551],[-0.713088,42.880715,1851.636577],[-0.713157,42.880824,1852.729552],[-0.713208,42.881017,1853.32499],[-0.713209,42.88114,1853.413109],[-0.713133,42.881425,1852.940286],[-0.713144,42.881503,1852.151964],[-0.713275,42.881702,1850.251164],[-0.713315,42.881803,1850.660128],[-0.713399,42.882162,1852.656088],[-0.713434,42.882232,1852.793989],[-0.713503,42.882288,1852.556289],[-0.71384,42.882442,1849.409746],[-0.713985,42.882481,1847.773975],[-0.714081,42.882491,1846.731516],[-0.71415,42.882482,1845.660407],[-0.71415,42.882482,1845.660407],[-0.714207,42.882474,1844.570423],[-0.714375,42.882373,1842.894438],[-0.714485,42.882271,1843.211224],[-0.71463,42.882094,1843.094166],[-0.714789,42.882075,1844.534364],[-0.715203,42.882065,1844.15305],[-0.715364,42.882036,1843.388285],[-0.715745,42.881901,1840.990791],[-0.715847,42.881878,1841.280213],[-0.716183,42.881897,1841.326863],[-0.716449,42.881875,1840.059293],[-0.716563,42.881835,1840.118409],[-0.716612,42.881789,1840.289891],[-0.716899,42.881422,1835.821936],[-0.717017,42.881296,1833.586992],[-0.71709,42.881257,1833.039908],[-0.717612,42.881131,1832.618137],[-0.717763,42.881105,1832.635472],[-0.718126,42.881085,1834.025617],[-0.718217,42.881067,1833.928098],[-0.718338,42.880997,1832.96541],[-0.718518,42.880851,1830.936825],[-0.71871,42.880622,1830.61728],[-0.718998,42.880333,1831.720288],[-0.719114,42.880256,1831.751365],[-0.719293,42.880209,1831.992434],[-0.719412,42.880209,1831.948285],[-0.719493,42.880226,1831.698262],[-0.719588,42.880264,1831.452462],[-0.719703,42.880353,1830.842127],[-0.719787,42.880458,1830.372848],[-0.719787,42.880458,1830.372848],[-0.719857,42.880545,1829.040627],[-0.720344,42.881386,1820.933964],[-0.720594,42.88176,1817.176521],[-0.720678,42.881974,1817.41267],[-0.721077,42.882373,1806.753172],[-0.721195,42.882626,1806.182034],[-0.721312,42.882879,1802.172955],[-0.72143,42.883131,1796.524032],[-0.721548,42.883384,1794.884311],[-0.72161,42.883469,1791.954262],[-0.721691,42.883547,1788.450554],[-0.721959,42.883749,1778.794517],[-0.722228,42.883951,1771.569168],[-0.722348,42.884009,1768.450572],[-0.722521,42.884066,1763.994929],[-0.722908,42.884148,1755.458076],[-0.723584,42.884335,1745.131106],[-0.723881,42.884499,1736.585781],[-0.72419,42.8847,1731.022119],[-0.724315,42.88483,1730.179175],[-0.724425,42.884888,1727.350253],[-0.724601,42.884919,1723.620964],[-0.724769,42.884916,1721.097857],[-0.725074,42.884868,1718.646673],[-0.725369,42.884859,1715.351441],[-0.725888,42.884718,1707.452669],[-0.726066,42.884588,1705.344276],[-0.726057,42.884568,1705.054514],[-0.726057,42.884568,1705.054514],[-0.72581,42.88401,1698.697479],[-0.725743,42.883939,1699.170863],[-0.725597,42.88386,1696.987183],[-0.725519,42.883795,1695.486167],[-0.725406,42.883558,1692.10468],[-0.725406,42.883558,1692.10468],[-0.725309,42.883355,1688.319312],[-0.725121,42.883125,1682.454598],[-0.72497,42.882854,1678.164616],[-0.724661,42.882471,1670.995339],[-0.724441,42.882117,1665.832536],[-0.724222,42.881821,1659.210201],[-0.724103,42.881554,1650.136667],[-0.724101,42.881533,1649.719765],[-0.724101,42.881533,1649.719765],[-0.724082,42.881332,1646.108696],[-0.724147,42.880784,1638.768785],[-0.724196,42.880657,1636.207509],[-0.724462,42.880311,1625.086437],[-0.724489,42.88019,1621.573757],[-0.724492,42.880011,1617.332145],[-0.724449,42.879821,1612.384817],[-0.724445,42.879708,1609.945551],[-0.724535,42.879559,1606.561271],[-0.724663,42.879246,1603.04657],[-0.724747,42.879127,1601.662874],[-0.724781,42.879,1599.081326],[-0.724732,42.878827,1596.37948],[-0.724732,42.878625,1595.165669],[-0.724522,42.878308,1593.585573],[-0.724492,42.878171,1592.141511],[-0.724537,42.877819,1587.818698],[-0.72452,42.877742,1586.978873],[-0.724461,42.877654,1584.775942],[-0.724445,42.877603,1584.881256],[-0.724445,42.877603,1584.881256],[-0.724439,42.877582,1584.12211],[-0.724517,42.877457,1580.493426],[-0.724504,42.877388,1579.357944],[-0.72436,42.877153,1575.544242],[-0.724329,42.87695,1575.493305],[-0.724272,42.876844,1575.798535],[-0.724181,42.876776,1575.959781],[-0.723853,42.876674,1571.398999],[-0.723766,42.87655,1570.663423],[-0.723581,42.876463,1568.246913],[-0.723536,42.876395,1567.082952],[-0.723521,42.876208,1567.421871],[-0.723447,42.876001,1566.863272],[-0.723373,42.875793,1568.417174],[-0.723171,42.875539,1565.069932],[-0.72287,42.875231,1562.069945],[-0.722641,42.87505,1558.150139],[-0.722353,42.874785,1552.295544],[-0.722307,42.874713,1549.998644],[-0.722291,42.874628,1548.34946],[-0.722313,42.874489,1546.11636],[-0.722366,42.874412,1544.098056],[-0.722545,42.874264,1540.852314],[-0.722567,42.874213,1539.403864],[-0.722542,42.873969,1536.450336],[-0.722371,42.873736,1529.320571],[-0.722293,42.87356,1526.563309],[-0.722223,42.873458,1524.708258],[-0.722036,42.873251,1520.539692],[-0.72193,42.873101,1517.300815],[-0.721742,42.872917,1513.673636],[-0.721642,42.872766,1509.717363],[-0.721534,42.872457,1497.789932],[-0.721536,42.872239,1493.477212],[-0.721611,42.871823,1485.321446],[-0.72161,42.871513,1478.213585],[-0.721583,42.87143,1477.920669],[-0.721502,42.871322,1477.566418],[-0.721419,42.871249,1478.937352],[-0.721385,42.871236,1479.239709],[-0.721385,42.871236,1479.239709],[-0.721178,42.871154,1480.52151],[-0.721068,42.871093,1478.904742],[-0.720941,42.870984,1477.049421],[-0.720755,42.870713,1475.267232],[-0.720645,42.870595,1476.077922],[-0.720459,42.870455,1475.024789],[-0.720327,42.870231,1472.196384],[-0.720152,42.870054,1472.891865],[-0.719933,42.869902,1473.493708],[-0.719714,42.86975,1472.52555],[-0.719575,42.869683,1470.853866],[-0.719306,42.869508,1470.305967],[-0.718892,42.869324,1468.428818],[-0.718737,42.869226,1467.615889],[-0.718555,42.869071,1466.880573],[-0.718122,42.868799,1465.868464],[-0.717985,42.868653,1464.013425],[-0.717754,42.868458,1462.740777],[-0.717605,42.868389,1463.531606],[-0.717266,42.868303,1463.993675],[-0.716633,42.868276,1462.918906],[-0.716299,42.868217,1460.73577],[-0.716207,42.868164,1460.73477],[-0.716108,42.868072,1460.343751],[-0.715844,42.867933,1457.12076],[-0.715656,42.867758,1455.8652],[-0.715541,42.867711,1456.04098],[-0.715234,42.867795,1450.744631],[-0.715034,42.867754,1447.191776],[-0.714611,42.867561,1436.455334],[-0.714596,42.867459,1435.501504],[-0.714367,42.867364,1430.951446],[-0.714321,42.867238,1435.052312],[-0.714047,42.867258,1438.710014],[-0.713882,42.867312,1438.568255],[-0.713631,42.867257,1437.065626],[-0.71345,42.867145,1435.828379],[-0.712681,42.86694,1431.076261],[-0.71233,42.866832,1427.790249],[-0.711925,42.866743,1425.363945],[-0.711492,42.866733,1420.566637],[-0.711238,42.866491,1423.033037],[-0.711082,42.866527,1421.989685],[-0.710986,42.866516,1422.036321],[-0.7108,42.86658,1419.885015],[-0.710694,42.866569,1418.840779],[-0.710484,42.866462,1416.044952],[-0.710338,42.866201,1410.200535],[-0.710178,42.86613,1407.446693],[-0.710036,42.865974,1404.110342],[-0.709943,42.865785,1403.151945],[-0.709644,42.86559,1401.018588],[-0.709249,42.865477,1396.596149],[-0.708991,42.86537,1394.754712],[-0.708656,42.865257,1392.431246],[-0.708415,42.8652,1388.033104],[-0.707517,42.864872,1375.084531],[-0.707438,42.864801,1374.988727],[-0.707438,42.864801,1374.988727],[-0.707137,42.86453,1373.53461],[-0.706567,42.864157,1367.699638],[-0.706282,42.863971,1365.42737],[-0.706064,42.863778,1365.489917],[-0.705661,42.863424,1367.358346],[-0.705447,42.863284,1366.897838],[-0.705296,42.863203,1366.532707],[-0.705071,42.863068,1364.365411],[-0.705007,42.862974,1363.896662],[-0.704766,42.862769,1362.260561],[-0.704778,42.862586,1363.124367],[-0.704523,42.862189,1362.420813],[-0.704333,42.862047,1361.286498],[-0.704058,42.861896,1358.729521],[-0.70399,42.861805,1358.809392],[-0.703581,42.861343,1354.579584],[-0.703273,42.860845,1343.468087],[-0.703065,42.860592,1338.288142],[-0.7029,42.860465,1335.758176],[-0.702673,42.860449,1333.265597],[-0.702446,42.860312,1329.321553],[-0.702408,42.86025,1328.480809],[-0.702284,42.86009,1327.223802],[-0.702003,42.859919,1328.689038],[-0.701482,42.859789,1325.50367],[-0.701168,42.859338,1326.026735],[-0.700817,42.8591,1327.869657],[-0.700474,42.858714,1327.445664],[-0.700333,42.858316,1327.145256],[-0.700315,42.858077,1326.606197],[-0.700232,42.857982,1324.887313],[-0.700077,42.85774,1325.668164],[-0.699922,42.857497,1328.898329],[-0.699767,42.857255,1323.647688],[-0.699487,42.857034,1313.326698],[-0.699375,42.856998,1310.010505],[-0.699255,42.856863,1303.810535],[-0.699227,42.856694,1297.278399],[-0.699029,42.856626,1291.802074],[-0.698808,42.856497,1286.527839],[-0.698588,42.856368,1278.933154],[-0.698408,42.856321,1273.344359],[-0.698109,42.856385,1266.30655],[-0.697841,42.856346,1259.427767],[-0.697826,42.856237,1254.952416],[-0.697729,42.856201,1252.429019],[-0.697579,42.855812,1243.447773],[-0.697554,42.855658,1240.321666],[-0.697489,42.855529,1236.785372],[-0.697428,42.855445,1233.602835],[-0.697214,42.855213,1225.995936],[-0.696975,42.855135,1227.851321],[-0.696925,42.855111,1228.101285]]}},{"type":"Feature","properties":{"name":"Ibón de Acherito"},"geometry":{"type":"Point","coordinates":[-0.708544,42.878593,1874.459264]}},{"type":"Feature","properties":{"name":"Refugio Acherito"},"geometry":{"type":"Point","coordinates":[-0.726019,42.884627,1705.732103]}},{"type":"Feature","properties":{"name":"Parking"},"geometry":{"type":"Point","coordinates":[-0.696955,42.855126,1227.993742]}}]}