{"type":"FeatureCollection","features":[{"type":"Feature","properties":{"_gpxType":"trk","name":"Turó de l'Home i les Agudes - Nomad Hikes","coordinateProperties":{"Extensionss":["\n              track\n            ","\n              track\n            ","\n              path\n              hiking\n            ","\n              path\n              hiking\n            ","\n              path\n              hiking\n            ","\n              path\n              hiking\n            ","\n              path\n              hiking\n            ","\n              path\n              hiking\n            ","\n              path\n              hiking\n            ","\n              path\n              hiking\n            ","\n              path\n              hiking\n            ","\n              path\n              hiking\n            ","\n              path\n              hiking\n            ","\n              path\n              hiking\n            ","\n              path\n              hiking\n            ","\n              path\n              hiking\n            ","\n              path\n              hiking\n            ","\n              path\n              hiking\n            ","\n              path\n              hiking\n            ","\n              path\n              hiking\n            ","\n              path\n              hiking\n            ","\n              path\n              hiking\n            ","\n              path\n              hiking\n            ","\n              track\n              mountain_hiking\n            ","\n              track\n              mountain_hiking\n            ","\n              track\n              mountain_hiking\n            ","\n              track\n              mountain_hiking\n            ","\n              track\n              mountain_hiking\n            ","\n              track\n              mountain_hiking\n            ","\n              track\n              mountain_hiking\n            ","\n              track\n              mountain_hiking\n            ","\n              track\n              mountain_hiking\n            ","\n              track\n              mountain_hiking\n            ","\n              track\n              mountain_hiking\n            ","\n              track\n              mountain_hiking\n            ","\n              track\n              mountain_hiking\n            ","\n              track\n              mountain_hiking\n            ","\n              track\n              mountain_hiking\n            ","\n              track\n              mountain_hiking\n            ","\n              track\n              mountain_hiking\n            ","\n              track\n              mountain_hiking\n            ","\n              track\n              mountain_hiking\n            ","\n              track\n              mountain_hiking\n            ","\n              track\n              mountain_hiking\n            ","\n              track\n              mountain_hiking\n            ","\n              track\n              mountain_hiking\n            ","\n              track\n              mountain_hiking\n            ","\n              track\n              mountain_hiking\n            ","\n              track\n              mountain_hiking\n            ","\n              track\n              mountain_hiking\n            ","\n              track\n              mountain_hiking\n            ","\n              track\n              mountain_hiking\n            ","\n              track\n              mountain_hiking\n            ","\n              track\n              mountain_hiking\n            ","\n              track\n              mountain_hiking\n            ","\n              track\n              mountain_hiking\n            ","\n              track\n              mountain_hiking\n            ","\n              track\n              mountain_hiking\n            ","\n              track\n              mountain_hiking\n            ","\n              track\n              mountain_hiking\n            ","\n              track\n              mountain_hiking\n            ","\n              track\n              mountain_hiking\n            ","\n              track\n              mountain_hiking\n            ","\n              track\n              mountain_hiking\n            ","\n              track\n              mountain_hiking\n            ","\n              track\n              mountain_hiking\n            ","\n              track\n              mountain_hiking\n            ","\n              track\n              mountain_hiking\n            ","\n              track\n              mountain_hiking\n            ","\n              track\n              mountain_hiking\n            ","\n              track\n              mountain_hiking\n            ","\n              track\n              mountain_hiking\n            ","\n              track\n              mountain_hiking\n            ","\n              track\n              mountain_hiking\n            ","\n              track\n              mountain_hiking\n            ","\n              track\n              mountain_hiking\n            ","\n              track\n              mountain_hiking\n            ","\n              track\n              mountain_hiking\n            ","\n              track\n              mountain_hiking\n            ","\n              track\n              mountain_hiking\n            ","\n              track\n              mountain_hiking\n            ","\n              track\n              mountain_hiking\n            ","\n              track\n              mountain_hiking\n            ","\n              track\n              mountain_hiking\n            ","\n              track\n              mountain_hiking\n            ","\n              track\n              mountain_hiking\n            ","\n              track\n              mountain_hiking\n            ","\n              track\n              mountain_hiking\n            ","\n              track\n              mountain_hiking\n            ","\n              track\n              mountain_hiking\n            ","\n              track\n              mountain_hiking\n            ","\n              track\n              mountain_hiking\n            ","\n              track\n              mountain_hiking\n            ","\n              track\n              mountain_hiking\n            ","\n              track\n              mountain_hiking\n            ","\n              track\n              mountain_hiking\n            ","\n              track\n              mountain_hiking\n            ","\n              track\n              mountain_hiking\n            ","\n              track\n              mountain_hiking\n            ","\n              track\n              mountain_hiking\n            ","\n              track\n              mountain_hiking\n            ","\n              track\n              mountain_hiking\n            ","\n              track\n              mountain_hiking\n            ","\n              track\n              mountain_hiking\n            ","\n              track\n              mountain_hiking\n            ","\n              track\n              mountain_hiking\n            ","\n              track\n              mountain_hiking\n            ","\n              track\n              mountain_hiking\n            ","\n              track\n              mountain_hiking\n            ","\n              track\n              mountain_hiking\n            ","\n              track\n              mountain_hiking\n            ","\n              track\n              mountain_hiking\n            ","\n              track\n              mountain_hiking\n            ","\n              track\n              mountain_hiking\n            ","\n              track\n              mountain_hiking\n            ","\n              track\n              mountain_hiking\n            ","\n              track\n              mountain_hiking\n            ","\n              track\n              mountain_hiking\n            ","\n              track\n              mountain_hiking\n            ","\n              track\n              mountain_hiking\n            ","\n              track\n              mountain_hiking\n            ","\n              track\n              mountain_hiking\n            ","\n              track\n              mountain_hiking\n            ","\n              track\n              mountain_hiking\n            ","\n              track\n              mountain_hiking\n            ","\n              track\n              mountain_hiking\n            ","\n              track\n              ground\n              mountain_hiking\n            ","\n              track\n              ground\n              mountain_hiking\n            ","\n              track\n              ground\n              mountain_hiking\n            ","\n              track\n              ground\n              mountain_hiking\n            ","\n              track\n              ground\n              mountain_hiking\n            ","\n              track\n              ground\n              mountain_hiking\n            ","\n              track\n              ground\n              mountain_hiking\n            ","\n              track\n              ground\n              mountain_hiking\n            ","\n              track\n              ground\n              mountain_hiking\n            ","\n              track\n              ground\n              mountain_hiking\n            ","\n              track\n              ground\n              mountain_hiking\n            ","\n              track\n              ground\n              mountain_hiking\n            ","\n              track\n              ground\n              mountain_hiking\n            ","\n              track\n              ground\n              mountain_hiking\n            ","\n              track\n              ground\n              mountain_hiking\n            ","\n              track\n              ground\n              mountain_hiking\n            ","\n              track\n              ground\n              mountain_hiking\n            ","\n              track\n              ground\n              mountain_hiking\n            ","\n              track\n              ground\n              mountain_hiking\n            ","\n              track\n              ground\n              mountain_hiking\n            ","\n              track\n              ground\n              mountain_hiking\n            ","\n              track\n              ground\n              mountain_hiking\n            ","\n              track\n              ground\n              mountain_hiking\n            ","\n              track\n              ground\n              mountain_hiking\n            ","\n              track\n              ground\n              mountain_hiking\n            ","\n              track\n              ground\n              mountain_hiking\n            ","\n              track\n              ground\n              mountain_hiking\n            ","\n              track\n              ground\n              mountain_hiking\n            ","\n              track\n              ground\n              mountain_hiking\n            ","\n              track\n              ground\n              mountain_hiking\n            ","\n              track\n              ground\n              mountain_hiking\n            ","\n              track\n              ground\n              mountain_hiking\n            ","\n              track\n              ground\n              mountain_hiking\n            ","\n              track\n              ground\n              mountain_hiking\n            ","\n              track\n              ground\n              mountain_hiking\n            ","\n              track\n              ground\n              mountain_hiking\n            ","\n              track\n              ground\n              mountain_hiking\n            ","\n              track\n              ground\n              mountain_hiking\n            ","\n              track\n              ground\n              mountain_hiking\n            ","\n              path\n            ","\n              path\n            ","\n              path\n            ","\n              path\n            ","\n              path\n            ","\n              track\n              ground\n              mountain_hiking\n            ","\n              track\n              ground\n              mountain_hiking\n            ","\n              track\n              ground\n              mountain_hiking\n            ","\n              track\n              ground\n              mountain_hiking\n            ","\n              track\n              ground\n              mountain_hiking\n            ","\n              track\n              ground\n              mountain_hiking\n            ","\n              track\n              ground\n              mountain_hiking\n            ","\n              track\n              ground\n              mountain_hiking\n            ","\n              track\n              ground\n              mountain_hiking\n            ","\n              track\n              ground\n              mountain_hiking\n            ","\n              track\n              ground\n              mountain_hiking\n            ","\n              track\n              ground\n              mountain_hiking\n            ","\n              track\n              ground\n              mountain_hiking\n            ","\n              track\n              ground\n              mountain_hiking\n            ","\n              track\n              ground\n              mountain_hiking\n            ","\n              track\n              ground\n              mountain_hiking\n            ","\n              track\n              ground\n              mountain_hiking\n            ","\n              path\n              ground\n              mountain_hiking\n            ","\n              path\n              ground\n              mountain_hiking\n            ",null,"\n              path\n              ground\n              mountain_hiking\n            ","\n              path\n              ground\n              mountain_hiking\n            ","\n              path\n              ground\n              mountain_hiking\n            ","\n              path\n              ground\n              mountain_hiking\n            ","\n              path\n              ground\n              mountain_hiking\n            ","\n              path\n              ground\n              mountain_hiking\n            ","\n              path\n              ground\n              mountain_hiking\n            ","\n              path\n              ground\n              mountain_hiking\n            ","\n              path\n              ground\n              mountain_hiking\n            ","\n              path\n              ground\n              mountain_hiking\n            ","\n              path\n              ground\n              mountain_hiking\n            ","\n              track\n              asphalt\n            ","\n              track\n              asphalt\n            ","\n              path\n              mountain_hiking\n            ","\n              path\n              ground\n              mountain_hiking\n            ","\n              path\n              ground\n              mountain_hiking\n            ","\n              path\n              ground\n              mountain_hiking\n            ","\n              path\n              ground\n              mountain_hiking\n            ","\n              path\n              ground\n              mountain_hiking\n            ","\n              path\n              ground\n              mountain_hiking\n            ","\n              path\n              ground\n              mountain_hiking\n            ","\n              path\n              ground\n              mountain_hiking\n            ","\n              path\n              ground\n              mountain_hiking\n            ","\n              path\n              ground\n              mountain_hiking\n            ","\n              path\n              ground\n              mountain_hiking\n            ","\n              path\n              ground\n              mountain_hiking\n            ","\n              path\n              ground\n              mountain_hiking\n            ","\n              path\n              ground\n              mountain_hiking\n            ","\n              path\n              ground\n              mountain_hiking\n            ","\n              path\n              ground\n              mountain_hiking\n            ","\n              path\n              ground\n              mountain_hiking\n            ",null,"\n              path\n              ground\n              mountain_hiking\n            ","\n              path\n              ground\n              hiking\n            ","\n              path\n              ground\n              hiking\n            ","\n              path\n              ground\n              hiking\n            ","\n              path\n              ground\n              hiking\n            ","\n              path\n              ground\n              hiking\n            ","\n              path\n              ground\n              hiking\n            ","\n              path\n              ground\n              hiking\n            ",null,null,null,null,null,null,null,null,null,"\n              path\n            ","\n              track\n              ground\n              mountain_hiking\n            ","\n              track\n              ground\n              mountain_hiking\n            ","\n              track\n              ground\n              mountain_hiking\n            ","\n              track\n              ground\n              mountain_hiking\n            ","\n              track\n              ground\n              mountain_hiking\n            ","\n              track\n              ground\n              mountain_hiking\n            ","\n              track\n              ground\n              mountain_hiking\n            ","\n              track\n              ground\n              mountain_hiking\n            ","\n              track\n              ground\n              mountain_hiking\n            ","\n              track\n              ground\n              mountain_hiking\n            ","\n              track\n              ground\n              mountain_hiking\n            ","\n              track\n              ground\n              mountain_hiking\n            ","\n              track\n              ground\n              mountain_hiking\n            ","\n              track\n              ground\n              mountain_hiking\n            ","\n              path\n              ground\n              mountain_hiking\n            ","\n              path\n              ground\n              mountain_hiking\n            ","\n              path\n              ground\n              mountain_hiking\n            ","\n              path\n              ground\n              mountain_hiking\n            ","\n              path\n              ground\n              mountain_hiking\n            ","\n              path\n              ground\n              mountain_hiking\n            ","\n              path\n              ground\n              mountain_hiking\n            ","\n              path\n              ground\n              mountain_hiking\n            ","\n              path\n              ground\n              mountain_hiking\n            ","\n              path\n              ground\n              mountain_hiking\n            ","\n              path\n              ground\n              mountain_hiking\n            ","\n              path\n              ground\n              mountain_hiking\n            ","\n              path\n              ground\n              mountain_hiking\n            ","\n              path\n              ground\n              mountain_hiking\n            ","\n              path\n              ground\n              mountain_hiking\n            ","\n              path\n              ground\n              mountain_hiking\n            ","\n              path\n              ground\n              mountain_hiking\n            ","\n              path\n              ground\n              mountain_hiking\n            ","\n              path\n              ground\n              mountain_hiking\n            ","\n              path\n              ground\n              mountain_hiking\n            ","\n              path\n              ground\n              mountain_hiking\n            ","\n              path\n              ground\n              mountain_hiking\n            ","\n              path\n              ground\n              mountain_hiking\n            ","\n              path\n              ground\n              mountain_hiking\n            ","\n              path\n              ground\n              mountain_hiking\n            ","\n              path\n              ground\n              mountain_hiking\n            ","\n              path\n              ground\n              mountain_hiking\n            ","\n              path\n              ground\n              mountain_hiking\n            ","\n              path\n              ground\n              mountain_hiking\n            ","\n              path\n              ground\n              mountain_hiking\n            ","\n              path\n              ground\n              mountain_hiking\n            ","\n              path\n              ground\n              mountain_hiking\n            ","\n              path\n              ground\n              mountain_hiking\n            ","\n              path\n              ground\n              mountain_hiking\n            ","\n              path\n              ground\n              mountain_hiking\n            ","\n              path\n              ground\n              mountain_hiking\n            ","\n              path\n              ground\n              mountain_hiking\n            ","\n              path\n              ground\n              mountain_hiking\n            ","\n              path\n              ground\n              mountain_hiking\n            ","\n              path\n              ground\n              mountain_hiking\n            ","\n              path\n              ground\n              mountain_hiking\n            ","\n              path\n              ground\n              mountain_hiking\n            ","\n              path\n              ground\n              mountain_hiking\n            ","\n              path\n              ground\n              mountain_hiking\n            ","\n              path\n              ground\n              mountain_hiking\n            ","\n              path\n              ground\n              mountain_hiking\n            ","\n              path\n              ground\n              mountain_hiking\n            ","\n              path\n              ground\n              mountain_hiking\n            ","\n              path\n              ground\n              mountain_hiking\n            ","\n              path\n              ground\n              mountain_hiking\n            ","\n              path\n              ground\n              mountain_hiking\n            ","\n              path\n              ground\n              mountain_hiking\n            ","\n              path\n              ground\n              mountain_hiking\n            ","\n              path\n              ground\n              mountain_hiking\n            ","\n              path\n              ground\n              mountain_hiking\n            ","\n              path\n              ground\n              mountain_hiking\n            ","\n              path\n              ground\n              mountain_hiking\n            ","\n              path\n              ground\n              mountain_hiking\n            ","\n              path\n              ground\n              mountain_hiking\n            ","\n              path\n              ground\n              mountain_hiking\n            ","\n              path\n              ground\n              mountain_hiking\n            ","\n              path\n              ground\n              mountain_hiking\n            ","\n              path\n              ground\n              mountain_hiking\n            ","\n              path\n              ground\n              mountain_hiking\n            ","\n              path\n              ground\n              mountain_hiking\n            ","\n              path\n              ground\n              mountain_hiking\n            ","\n              path\n              ground\n              mountain_hiking\n            ","\n              path\n              ground\n              mountain_hiking\n            ","\n              path\n              ground\n              mountain_hiking\n            ","\n              path\n              ground\n              mountain_hiking\n            ","\n              path\n              ground\n              mountain_hiking\n            ","\n              path\n              ground\n              mountain_hiking\n            ","\n              path\n              ground\n              mountain_hiking\n            ","\n              path\n              ground\n              mountain_hiking\n            ","\n              path\n              ground\n              mountain_hiking\n            ","\n              path\n              ground\n              mountain_hiking\n            ","\n              path\n              ground\n              mountain_hiking\n            ","\n              path\n              ground\n              mountain_hiking\n            ","\n              path\n              ground\n              mountain_hiking\n            ","\n              path\n              ground\n              mountain_hiking\n            ","\n              path\n              ground\n              mountain_hiking\n            ","\n              path\n              ground\n              mountain_hiking\n            ","\n              path\n              ground\n              mountain_hiking\n            ","\n              path\n              ground\n              mountain_hiking\n            ","\n              path\n              ground\n              mountain_hiking\n            ","\n              path\n              ground\n              mountain_hiking\n            ","\n              path\n              ground\n              mountain_hiking\n            ","\n              path\n              ground\n              mountain_hiking\n            ","\n              path\n              ground\n              mountain_hiking\n            ","\n              path\n              ground\n              mountain_hiking\n            ","\n              path\n              ground\n              mountain_hiking\n            ","\n              path\n              ground\n              mountain_hiking\n            ","\n              path\n              ground\n              mountain_hiking\n            ","\n              path\n              ground\n              mountain_hiking\n            ","\n              path\n              ground\n              mountain_hiking\n            ","\n              path\n              ground\n            ","\n              path\n              ground\n            ","\n              path\n              ground\n            ","\n              path\n              ground\n            ","\n              path\n              ground\n            ","\n              path\n              ground\n            ","\n              path\n              ground\n            ","\n              path\n              ground\n              mountain_hiking\n            ","\n              path\n              ground\n              mountain_hiking\n            ","\n              path\n              ground\n              mountain_hiking\n            ","\n              path\n              ground\n              mountain_hiking\n            ","\n              path\n              ground\n              mountain_hiking\n            ","\n              path\n              ground\n              mountain_hiking\n            ","\n              path\n              ground\n              mountain_hiking\n            ","\n              path\n              ground\n              mountain_hiking\n            ","\n              path\n              ground\n              mountain_hiking\n            ","\n              path\n              ground\n              mountain_hiking\n            ","\n              path\n              ground\n              mountain_hiking\n            ","\n              path\n              ground\n              mountain_hiking\n            ","\n              path\n              ground\n              mountain_hiking\n            ","\n              path\n              ground\n              mountain_hiking\n            ","\n              path\n              ground\n            ","\n              path\n              ground\n            ","\n              path\n              ground\n            ","\n              path\n              ground\n            ","\n              path\n              ground\n              mountain_hiking\n            ","\n              path\n              ground\n              mountain_hiking\n            ","\n              path\n              ground\n              mountain_hiking\n            ","\n              path\n              ground\n              mountain_hiking\n            ","\n              path\n              ground\n              mountain_hiking\n            ","\n              path\n              ground\n              mountain_hiking\n            ","\n              path\n              ground\n              mountain_hiking\n            ","\n              path\n              ground\n              mountain_hiking\n            ","\n              path\n              ground\n              mountain_hiking\n            ","\n              path\n              ground\n              mountain_hiking\n            ","\n              path\n              ground\n              mountain_hiking\n            ","\n              path\n              ground\n              mountain_hiking\n            ","\n              path\n              ground\n              mountain_hiking\n            ","\n              path\n              ground\n              mountain_hiking\n            ","\n              path\n              ground\n              mountain_hiking\n            ","\n              path\n              ground\n              mountain_hiking\n            ","\n              path\n              ground\n              mountain_hiking\n            ","\n              path\n              ground\n              mountain_hiking\n            ","\n              path\n              ground\n              mountain_hiking\n            ","\n              path\n              ground\n              mountain_hiking\n            ","\n              path\n              ground\n              mountain_hiking\n            ","\n              path\n              ground\n              mountain_hiking\n            ","\n              path\n              ground\n              mountain_hiking\n            ","\n              path\n              ground\n              mountain_hiking\n            ","\n              path\n              ground\n              mountain_hiking\n            ","\n              path\n              ground\n              mountain_hiking\n            ","\n              path\n              ground\n              mountain_hiking\n            ","\n              path\n              ground\n              mountain_hiking\n            ","\n              path\n              ground\n              mountain_hiking\n            ","\n              path\n              ground\n              mountain_hiking\n            ","\n              path\n              ground\n              mountain_hiking\n            ","\n              path\n              ground\n              mountain_hiking\n            ","\n              path\n              ground\n              mountain_hiking\n            ","\n              path\n              ground\n              mountain_hiking\n            ","\n              path\n              ground\n              mountain_hiking\n            ","\n              path\n              ground\n              mountain_hiking\n            ","\n              path\n              ground\n              mountain_hiking\n            ","\n              path\n              ground\n              mountain_hiking\n            ","\n              path\n              ground\n              mountain_hiking\n            ","\n              path\n              ground\n              mountain_hiking\n            ","\n              path\n              ground\n              mountain_hiking\n            ","\n              path\n              ground\n              mountain_hiking\n            ","\n              path\n              ground\n              mountain_hiking\n            ","\n              path\n              ground\n              mountain_hiking\n            ","\n              path\n              ground\n              mountain_hiking\n            ","\n              path\n              ground\n              mountain_hiking\n            ","\n              path\n              ground\n              mountain_hiking\n            ","\n              path\n              ground\n              mountain_hiking\n            ","\n              path\n              ground\n              mountain_hiking\n            ","\n              path\n              ground\n              mountain_hiking\n            ","\n              path\n              ground\n              mountain_hiking\n            ","\n              path\n              ground\n              mountain_hiking\n            ","\n              path\n              ground\n              mountain_hiking\n            ","\n              path\n              ground\n              mountain_hiking\n            ","\n              path\n              ground\n              mountain_hiking\n            ","\n              path\n              ground\n              mountain_hiking\n            ","\n              path\n              ground\n              mountain_hiking\n            ","\n              path\n              ground\n              mountain_hiking\n            ","\n              path\n              ground\n              mountain_hiking\n            ","\n              path\n              ground\n              mountain_hiking\n            ","\n              path\n              ground\n              mountain_hiking\n            ","\n              path\n              ground\n              mountain_hiking\n            ","\n              path\n              ground\n              mountain_hiking\n            ","\n              path\n              ground\n              mountain_hiking\n            ","\n              path\n              ground\n              mountain_hiking\n            ","\n              path\n              ground\n              mountain_hiking\n            ","\n              path\n              ground\n              mountain_hiking\n            ","\n              path\n              ground\n              mountain_hiking\n            ","\n              path\n              ground\n              mountain_hiking\n            ","\n              path\n              ground\n              mountain_hiking\n            ","\n              path\n              ground\n              mountain_hiking\n            ","\n              path\n              ground\n              mountain_hiking\n            ","\n              path\n              ground\n              mountain_hiking\n            ","\n              path\n              ground\n              mountain_hiking\n            ","\n              path\n              ground\n              mountain_hiking\n            ","\n              path\n              ground\n              mountain_hiking\n            ","\n              path\n              ground\n              mountain_hiking\n            ","\n              path\n              ground\n              mountain_hiking\n            ","\n              path\n              ground\n              mountain_hiking\n            ","\n              path\n              ground\n              mountain_hiking\n            ","\n              path\n              ground\n              mountain_hiking\n            ","\n              path\n              ground\n              mountain_hiking\n            ","\n              path\n              ground\n              mountain_hiking\n            ","\n              path\n              ground\n              mountain_hiking\n            ","\n              path\n              ground\n              mountain_hiking\n            ","\n              path\n              ground\n              mountain_hiking\n            ","\n              path\n              ground\n              mountain_hiking\n            ","\n              path\n              ground\n              mountain_hiking\n            ","\n              path\n              ground\n              mountain_hiking\n            ","\n              path\n              ground\n              mountain_hiking\n            ","\n              path\n              ground\n              mountain_hiking\n            ","\n              path\n              ground\n              mountain_hiking\n            ","\n              path\n              ground\n              mountain_hiking\n            ","\n              path\n              ground\n              mountain_hiking\n            ","\n              path\n              ground\n              mountain_hiking\n            ","\n              path\n              ground\n              mountain_hiking\n            ","\n              path\n              ground\n              mountain_hiking\n            ","\n              path\n              ground\n              mountain_hiking\n            ","\n              path\n              ground\n              mountain_hiking\n            ","\n              path\n              ground\n              mountain_hiking\n            ","\n              path\n              ground\n              mountain_hiking\n            ","\n              path\n              ground\n              mountain_hiking\n            ","\n              path\n              ground\n              mountain_hiking\n            ","\n              path\n              ground\n              mountain_hiking\n            ","\n              path\n              ground\n              mountain_hiking\n            ","\n              path\n              ground\n              mountain_hiking\n            ","\n              path\n              ground\n              mountain_hiking\n            ","\n              path\n              ground\n              mountain_hiking\n            ","\n              path\n              ground\n              mountain_hiking\n            ","\n              path\n              ground\n              mountain_hiking\n            ","\n              path\n              ground\n              mountain_hiking\n            ","\n              path\n              ground\n              mountain_hiking\n            ","\n              path\n              ground\n              mountain_hiking\n            ","\n              path\n              ground\n              mountain_hiking\n            ","\n              path\n              ground\n              mountain_hiking\n            ","\n              path\n              ground\n              mountain_hiking\n            ","\n              path\n              ground\n              mountain_hiking\n            ","\n              path\n              ground\n              mountain_hiking\n            ","\n              path\n              ground\n              mountain_hiking\n            ","\n              path\n              ground\n              mountain_hiking\n            ","\n              path\n              ground\n              mountain_hiking\n            ","\n              path\n              ground\n              mountain_hiking\n            ","\n              path\n              ground\n              mountain_hiking\n            ","\n              path\n              ground\n              mountain_hiking\n            ","\n              path\n              ground\n              mountain_hiking\n            ","\n              path\n              ground\n              mountain_hiking\n            ","\n              path\n              ground\n              mountain_hiking\n            ","\n              path\n              ground\n              mountain_hiking\n            ","\n              path\n              ground\n              mountain_hiking\n            ","\n              path\n              ground\n              mountain_hiking\n            ","\n              path\n              ground\n              mountain_hiking\n            ","\n              path\n              ground\n              mountain_hiking\n            ","\n              path\n              ground\n              mountain_hiking\n            ","\n              path\n              ground\n              mountain_hiking\n            ","\n              path\n              ground\n              mountain_hiking\n            ","\n              path\n              ground\n              mountain_hiking\n            ","\n              path\n              ground\n              mountain_hiking\n            ","\n              path\n              ground\n              mountain_hiking\n            ","\n              path\n              ground\n              mountain_hiking\n            ","\n              path\n              ground\n              mountain_hiking\n            ","\n              path\n              ground\n              mountain_hiking\n            ","\n              path\n              ground\n              mountain_hiking\n            ","\n              path\n              ground\n              mountain_hiking\n            ","\n              path\n              ground\n              mountain_hiking\n            ","\n              path\n              ground\n              mountain_hiking\n            ","\n              path\n              ground\n              mountain_hiking\n            ","\n              path\n              ground\n              mountain_hiking\n            ","\n              path\n              ground\n              mountain_hiking\n            ","\n              path\n              ground\n              mountain_hiking\n            ","\n              path\n              ground\n              mountain_hiking\n            ","\n              path\n              ground\n              mountain_hiking\n            ","\n              path\n              ground\n              mountain_hiking\n            ","\n              path\n              ground\n              mountain_hiking\n            ","\n              path\n              ground\n              mountain_hiking\n            ","\n              path\n              ground\n              mountain_hiking\n            ","\n              path\n              ground\n              mountain_hiking\n            ","\n              path\n              ground\n              mountain_hiking\n            ","\n              path\n              ground\n              mountain_hiking\n            ","\n              path\n              ground\n              mountain_hiking\n            ","\n              path\n              ground\n              mountain_hiking\n            ","\n              path\n              ground\n              mountain_hiking\n            ","\n              path\n              ground\n              mountain_hiking\n            ","\n              path\n              ground\n              mountain_hiking\n            ","\n              path\n            ","\n              path\n            ","\n              path\n              hiking\n            ","\n              path\n              hiking\n            ","\n              path\n              hiking\n            ","\n              path\n              hiking\n            ","\n              path\n              hiking\n            ","\n              path\n              hiking\n            ","\n              path\n              hiking\n            ","\n              path\n              hiking\n            ","\n              path\n              hiking\n            ","\n              path\n              hiking\n            ","\n              track\n            ","\n              track\n            ","\n              track\n            "]}},"geometry":{"type":"LineString","coordinates":[[2.451809,41.780233,1204.578796],[2.451699,41.780243,1205.447737],[2.451647,41.780278,1205.634063],[2.451526,41.780277,1206.377475],[2.451218,41.780255,1209.063369],[2.450923,41.780249,1212.491992],[2.450624,41.780471,1214.25416],[2.450489,41.780628,1215.363059],[2.450386,41.780707,1216.668884],[2.450294,41.780765,1217.993774],[2.450196,41.780795,1218.943667],[2.449791,41.780853,1223.193957],[2.449521,41.780869,1226.207788],[2.449399,41.780794,1227.979654],[2.449322,41.780781,1228.890277],[2.449177,41.780799,1230.104916],[2.448965,41.780665,1234.039575],[2.448932,41.780568,1238.115755],[2.448971,41.780446,1242.576248],[2.449091,41.780304,1245.930645],[2.449198,41.780206,1247.28743],[2.449282,41.780106,1248.902481],[2.449332,41.780023,1250.675884],[2.449359,41.779927,1253.5208],[2.449355,41.779914,1254.05263],[2.449355,41.779914,1254.05263],[2.449355,41.779914,1254.05263],[2.449347,41.779881,1255.336105],[2.448953,41.77997,1259.964679],[2.448736,41.780034,1261.796914],[2.448358,41.780093,1267.62699],[2.448172,41.78006,1271.118292],[2.447794,41.779919,1277.436087],[2.447617,41.779886,1278.145972],[2.447362,41.779791,1281.738914],[2.447319,41.779764,1282.646996],[2.447289,41.779745,1283.293332],[2.447339,41.779721,1285.493057],[2.447531,41.779752,1285.281267],[2.447864,41.779747,1286.748812],[2.448172,41.779688,1287.652793],[2.44829,41.779626,1288.493522],[2.448357,41.77956,1290.131607],[2.448492,41.779448,1292.544448],[2.448723,41.779225,1297.441549],[2.448894,41.779004,1300.799823],[2.448955,41.778899,1302.772487],[2.449118,41.778705,1305.200224],[2.449285,41.77853,1306.810447],[2.449409,41.778371,1308.681194],[2.449611,41.778002,1314.825953],[2.449686,41.777893,1316.005796],[2.44976,41.777751,1318.935979],[2.449834,41.777595,1322.313516],[2.449921,41.777467,1324.44154],[2.450402,41.776679,1336.808954],[2.450439,41.776566,1339.594031],[2.45038,41.776588,1341.012539],[2.45031,41.77663,1342.058055],[2.450189,41.776733,1342.605189],[2.449822,41.777008,1345.464934],[2.449491,41.777243,1348.761161],[2.449335,41.777387,1348.525614],[2.449335,41.777387,1348.525614],[2.449256,41.777461,1348.184828],[2.449137,41.777529,1349.293306],[2.449164,41.777465,1350.820121],[2.4496,41.776985,1353.968082],[2.449786,41.776596,1363.10673],[2.449838,41.77652,1364.65303],[2.449955,41.776393,1366.433762],[2.450057,41.776266,1367.567467],[2.450124,41.776157,1368.870845],[2.450215,41.775963,1372.002059],[2.450351,41.775745,1372.688095],[2.450425,41.775599,1373.007871],[2.450411,41.775431,1377.415037],[2.450387,41.775447,1378.112477],[2.450387,41.775447,1378.112477],[2.450387,41.775447,1378.112477],[2.450272,41.775523,1381.474744],[2.449913,41.775866,1387.617529],[2.449675,41.776,1392.066479],[2.449491,41.776132,1392.811374],[2.449314,41.776225,1394.85123],[2.449042,41.776333,1398.987631],[2.448678,41.776526,1404.502596],[2.448522,41.776618,1406.913215],[2.44831,41.776696,1410.920984],[2.448143,41.776775,1414.458014],[2.447955,41.776958,1416.605079],[2.447856,41.777007,1419.166126],[2.447421,41.777084,1427.178636],[2.447332,41.777084,1428.626723],[2.447322,41.777078,1428.900091],[2.447245,41.777028,1431.343246],[2.447327,41.77688,1435.616006],[2.447388,41.776832,1436.831626],[2.447608,41.776702,1436.860527],[2.447726,41.776573,1436.261521],[2.447759,41.776505,1437.231489],[2.447814,41.776373,1440.009064],[2.447891,41.77623,1442.894401],[2.447924,41.776128,1445.840452],[2.448036,41.775989,1447.53323],[2.448189,41.775609,1458.076943],[2.448287,41.775457,1461.626239],[2.448446,41.775189,1469.128995],[2.448446,41.775189,1469.128995],[2.448446,41.775189,1469.128995],[2.448455,41.775174,1469.437126],[2.448429,41.775146,1471.652224],[2.448379,41.775139,1473.602227],[2.448262,41.775183,1474.999535],[2.447837,41.775385,1480.704749],[2.446878,41.775783,1494.142316],[2.446803,41.775779,1495.829378],[2.446799,41.775762,1496.397425],[2.446792,41.775728,1497.525026],[2.447202,41.775317,1503.005299],[2.447343,41.77518,1505.506833],[2.447689,41.774883,1507.668931],[2.447915,41.774677,1508.203503],[2.448032,41.774531,1508.232416],[2.448044,41.774428,1510.022381],[2.448044,41.774428,1510.022381],[2.448053,41.774349,1510.721143],[2.447768,41.774529,1517.207839],[2.447674,41.774579,1518.846217],[2.447557,41.774629,1521.155834],[2.447008,41.774783,1530.065842],[2.446813,41.774876,1531.02857],[2.446521,41.775022,1531.83308],[2.44641,41.775061,1531.756269],[2.44641,41.775061,1531.756269],[2.446236,41.775106,1531.727995],[2.445945,41.775041,1533.837813],[2.445787,41.774932,1536.259159],[2.445396,41.774681,1536.314612],[2.444975,41.774283,1537.591612],[2.44478,41.774145,1537.513052],[2.444581,41.774032,1538.391198],[2.444103,41.773861,1543.083778],[2.443603,41.773766,1549.286197],[2.443603,41.773766,1549.286197],[2.443469,41.773739,1550.001868],[2.443275,41.773759,1548.369383],[2.443117,41.773815,1546.890687],[2.442835,41.773944,1545.102615],[2.442474,41.774035,1548.198178],[2.442227,41.774059,1550.701902],[2.442076,41.774063,1549.520205],[2.441825,41.774122,1545.561997],[2.441576,41.774199,1543.210456],[2.441462,41.774215,1544.718878],[2.441238,41.774273,1547.231089],[2.44096,41.774386,1549.773659],[2.44096,41.774386,1549.773659],[2.440876,41.774407,1551.682359],[2.440794,41.774521,1550.289145],[2.440691,41.77459,1553.614333],[2.440532,41.774718,1557.381454],[2.440474,41.774793,1558.109208],[2.440211,41.775064,1564.187618],[2.440111,41.775213,1567.860073],[2.439954,41.775367,1573.308077],[2.440027,41.775467,1573.679748],[2.440066,41.775586,1574.987406],[2.440066,41.775586,1574.987406],[2.440027,41.775467,1573.679748],[2.439954,41.775367,1573.308077],[2.439761,41.77535,1576.970254],[2.439645,41.775294,1580.142684],[2.439453,41.775237,1584.801345],[2.43928,41.775229,1587.599893],[2.439095,41.77521,1591.296363],[2.438924,41.77521,1593.755871],[2.438758,41.775197,1597.233185],[2.438391,41.775217,1602.846043],[2.438391,41.775217,1602.846043],[2.438246,41.775256,1603.908121],[2.437848,41.775404,1610.201379],[2.437533,41.775543,1613.650239],[2.437371,41.775626,1615.657119],[2.437169,41.775735,1619.199916],[2.437048,41.775816,1621.943767],[2.436984,41.775889,1623.192586],[2.43689,41.776019,1625.577825],[2.436903,41.776042,1624.924446],[2.436918,41.776037,1624.337525],[2.436903,41.776042,1624.924446],[2.436818,41.775923,1628.767041],[2.436777,41.775829,1630.965291],[2.436719,41.775747,1633.803712],[2.436662,41.775643,1637.338813],[2.436636,41.775534,1640.742192],[2.436609,41.775486,1642.55516],[2.436586,41.77534,1646.273526],[2.436566,41.775278,1647.982677],[2.436535,41.775231,1649.344738],[2.436483,41.7752,1650.696589],[2.436423,41.775176,1651.945336],[2.43643,41.775168,1651.920041],[2.436423,41.775176,1651.945336],[2.436342,41.775195,1652.509607],[2.436232,41.775167,1652.994493],[2.436083,41.775216,1653.689463],[2.435903,41.775308,1656.176497],[2.43576,41.775341,1657.378978],[2.435344,41.775375,1659.069083],[2.435204,41.775483,1666.548913],[2.435118,41.775561,1668.813033],[2.434738,41.775955,1677.67066],[2.434548,41.776152,1682.219326],[2.434417,41.776392,1688.014507],[2.434405,41.776502,1690.72759],[2.434405,41.776502,1690.72759],[2.434395,41.776587,1691.906679],[2.434417,41.776729,1694.108947],[2.434447,41.776833,1695.756096],[2.434498,41.776953,1695.642571],[2.434502,41.776952,1695.750944],[2.434498,41.776953,1695.642571],[2.434509,41.776977,1694.833434],[2.434633,41.776968,1694.278724],[2.434782,41.776904,1695.185514],[2.4351,41.776746,1694.652997],[2.435197,41.776634,1694.025659],[2.435225,41.776547,1693.444824],[2.435216,41.776367,1692.631492],[2.435149,41.776217,1692.545722],[2.435157,41.776389,1694.85028],[2.434976,41.776376,1698.764496],[2.435155,41.776432,1695.391848],[2.435143,41.776525,1696.11361],[2.434867,41.776612,1702.394781],[2.434891,41.776522,1702.042082],[2.435059,41.77655,1698.71113],[2.435262,41.776432,1691.476922],[2.435292,41.776415,1690.026011],[2.435377,41.776501,1687.16107],[2.435337,41.77654,1689.003924],[2.435345,41.776695,1688.514014],[2.435346,41.776722,1687.924678],[2.435294,41.776809,1687.689356],[2.434728,41.777299,1676.634241],[2.434622,41.7774,1673.750125],[2.434449,41.777593,1668.371703],[2.43433,41.777698,1665.765175],[2.4341,41.777809,1662.632386],[2.43397,41.777911,1658.673411],[2.433699,41.778223,1648.116015],[2.433546,41.778422,1644.171328],[2.433438,41.778504,1643.366979],[2.433353,41.778543,1643.378893],[2.433347,41.778602,1642.766354],[2.433347,41.778602,1642.766354],[2.433358,41.778713,1639.891297],[2.433401,41.778777,1636.877319],[2.433422,41.778831,1634.82543],[2.433433,41.779005,1631.65484],[2.433509,41.779506,1623.225832],[2.433514,41.779604,1621.982642],[2.433551,41.779818,1618.16869],[2.433599,41.779868,1615.92313],[2.433667,41.780005,1613.555975],[2.433722,41.780261,1617.021356],[2.433808,41.78058,1622.634823],[2.43386,41.780652,1622.437912],[2.433878,41.78072,1623.694357],[2.433929,41.7808,1624.167134],[2.434006,41.780888,1624.007555],[2.43414,41.78109,1625.026375],[2.434215,41.781171,1624.452329],[2.434323,41.781327,1624.892981],[2.434423,41.781487,1625.467198],[2.434423,41.781547,1627.100774],[2.434473,41.781602,1625.91564],[2.434504,41.78168,1625.840268],[2.434504,41.78168,1625.840268],[2.434599,41.781915,1625.145398],[2.434768,41.782132,1624.348503],[2.434779,41.78217,1625.404572],[2.434959,41.782418,1630.112177],[2.435131,41.782578,1633.694216],[2.435161,41.782627,1635.441361],[2.435451,41.78276,1636.315734],[2.436106,41.783192,1639.72295],[2.43614,41.78326,1642.075791],[2.436185,41.783281,1641.480826],[2.436302,41.783463,1645.121061],[2.436499,41.783715,1648.372468],[2.436629,41.784038,1653.740899],[2.436782,41.784238,1653.651183],[2.436878,41.784342,1653.914561],[2.436917,41.784372,1653.699364],[2.436951,41.784388,1653.078425],[2.437037,41.784487,1653.823671],[2.437037,41.784487,1653.823671],[2.437182,41.784657,1655.570053],[2.437239,41.784691,1655.234864],[2.437263,41.784725,1655.920116],[2.437309,41.78476,1655.929315],[2.437565,41.784925,1655.852102],[2.437671,41.784965,1655.269255],[2.437777,41.785029,1655.825605],[2.438001,41.785131,1656.430929],[2.438027,41.785165,1656.622127],[2.438182,41.785246,1656.81766],[2.438288,41.785257,1655.878863],[2.438383,41.785253,1654.208986],[2.438547,41.785257,1651.576706],[2.438707,41.78529,1650.270601],[2.438854,41.785301,1648.293948],[2.438945,41.785372,1650.297265],[2.439064,41.785399,1649.641956],[2.439148,41.785461,1650.496006],[2.439214,41.785486,1650.663576],[2.439276,41.78556,1651.663469],[2.439326,41.7856,1651.975898],[2.439398,41.78563,1652.908108],[2.439491,41.785651,1654.249314],[2.439565,41.785684,1654.696056],[2.439662,41.785776,1654.783318],[2.439693,41.785818,1653.474621],[2.440129,41.786088,1654.803916],[2.440441,41.786311,1651.563925],[2.440624,41.786454,1649.948845],[2.440766,41.786532,1650.718876],[2.440937,41.786608,1652.848082],[2.440948,41.786621,1652.70144],[2.440948,41.786621,1652.70144],[2.441148,41.786866,1652.384234],[2.441235,41.786943,1651.33283],[2.44139,41.787003,1651.931557],[2.441467,41.787081,1650.282464],[2.441629,41.787195,1649.203271],[2.441667,41.787232,1649.226482],[2.441723,41.787264,1649.793296],[2.441759,41.787368,1650.301829],[2.441801,41.787418,1651.448396],[2.441815,41.787484,1650.921105],[2.441938,41.787609,1650.903751],[2.441959,41.787656,1648.6816],[2.442012,41.787703,1647.436312],[2.442096,41.787757,1646.404332],[2.442142,41.78778,1645.921878],[2.442187,41.787815,1645.330833],[2.442237,41.787834,1645.479738],[2.442258,41.787867,1645.125242],[2.442382,41.787933,1645.813725],[2.442453,41.787986,1646.298778],[2.44254,41.788023,1646.565861],[2.442732,41.788333,1653.373174],[2.442778,41.788388,1655.011306],[2.442869,41.788456,1657.295658],[2.442912,41.788499,1659.480752],[2.443051,41.788624,1666.499263],[2.443379,41.788802,1674.127438],[2.443481,41.788882,1678.879514],[2.443624,41.788984,1685.595947],[2.443743,41.789141,1694.261316],[2.443887,41.78927,1699.077395],[2.443887,41.78927,1699.077395],[2.443887,41.78927,1699.077395],[2.443743,41.789141,1694.261316],[2.443624,41.788984,1685.595947],[2.443481,41.788882,1678.879514],[2.443379,41.788802,1674.127438],[2.443051,41.788624,1666.499263],[2.442912,41.788499,1659.480752],[2.442869,41.788456,1657.295658],[2.442778,41.788388,1655.011306],[2.442732,41.788333,1653.373174],[2.44254,41.788023,1646.565861],[2.44254,41.787993,1645.577512],[2.442519,41.787944,1644.319615],[2.442525,41.787898,1642.983367],[2.442533,41.787838,1641.165307],[2.442624,41.787784,1637.559305],[2.442634,41.787756,1636.667225],[2.442681,41.787729,1634.556934],[2.442817,41.787674,1628.59236],[2.442885,41.787595,1623.886614],[2.442926,41.787477,1618.533083],[2.442903,41.787191,1611.062683],[2.442873,41.787055,1609.176373],[2.442934,41.786876,1601.453793],[2.442956,41.786662,1593.196582],[2.442956,41.786662,1593.196582],[2.442951,41.786443,1584.542358],[2.442855,41.786316,1584.331506],[2.442837,41.786234,1583.435433],[2.442672,41.785891,1585.775733],[2.442701,41.785743,1583.039516],[2.442637,41.785605,1583.317039],[2.442423,41.785526,1585.393848],[2.442265,41.785412,1583.285922],[2.442058,41.785224,1580.160084],[2.441892,41.785086,1578.057169],[2.441816,41.784961,1573.823318],[2.441782,41.784837,1569.902782],[2.441788,41.784659,1565.430233],[2.441764,41.784568,1565.833216],[2.441754,41.78443,1566.333049],[2.441755,41.784269,1565.261179],[2.441763,41.78423,1564.446354],[2.441763,41.78423,1564.446354],[2.441787,41.784123,1561.145611],[2.441464,41.784023,1560.790505],[2.441275,41.783987,1558.216152],[2.440999,41.783875,1550.477132],[2.440894,41.78385,1549.225102],[2.440788,41.783806,1546.5186],[2.440669,41.783725,1541.552396],[2.440562,41.783624,1535.140856],[2.440125,41.783366,1525.702931],[2.440011,41.783337,1525.126805],[2.439848,41.783222,1519.705551],[2.439847,41.783123,1513.934387],[2.439692,41.783,1508.113213],[2.439609,41.782882,1504.229484],[2.439609,41.782882,1504.229484],[2.439559,41.782811,1501.752438],[2.439632,41.78279,1499.226474],[2.43972,41.782783,1496.945138],[2.439902,41.782802,1494.292494],[2.43996,41.782786,1492.727502],[2.440021,41.782709,1489.06294],[2.440403,41.782733,1483.736714],[2.440568,41.782774,1482.645739],[2.440771,41.78273,1479.119119],[2.440974,41.782731,1478.690594],[2.441283,41.7827,1476.725198],[2.441533,41.782695,1476.321137],[2.44178,41.782681,1474.699101],[2.442069,41.782672,1472.37757],[2.442435,41.782686,1467.825952],[2.44254,41.782732,1467.312306],[2.44254,41.782732,1467.312306],[2.442936,41.782911,1463.087016],[2.443205,41.78307,1458.727078],[2.44332,41.783156,1456.140586],[2.443434,41.783294,1454.036612],[2.443534,41.783436,1451.571298],[2.443581,41.783538,1451.213892],[2.443596,41.783634,1451.477369],[2.443731,41.783764,1443.750808],[2.443806,41.783839,1442.642386],[2.443931,41.783871,1442.088293],[2.444053,41.783878,1440.956307],[2.444418,41.783838,1433.572335],[2.444554,41.783858,1432.074676],[2.444654,41.783887,1431.544869],[2.444868,41.783991,1431.894683],[2.445015,41.784049,1430.347552],[2.4452,41.78415,1429.122512],[2.445355,41.78419,1425.395372],[2.44548,41.78424,1423.070934],[2.445604,41.784319,1421.296804],[2.445902,41.784452,1412.866498],[2.445984,41.784507,1410.095566],[2.446098,41.78467,1406.555838],[2.446158,41.784732,1404.114887],[2.446178,41.784784,1403.150841],[2.446156,41.78487,1404.004238],[2.44617,41.784923,1402.77527],[2.446247,41.784993,1397.368568],[2.446319,41.785156,1393.569112],[2.446319,41.785156,1393.569112],[2.446326,41.785171,1393.848284],[2.446361,41.785191,1393.986888],[2.446452,41.785165,1393.104814],[2.446533,41.785131,1391.348522],[2.446659,41.785034,1386.909747],[2.446707,41.785011,1385.798791],[2.446741,41.784971,1383.334796],[2.446793,41.784955,1382.458114],[2.447008,41.784934,1380.981106],[2.447151,41.784892,1377.733224],[2.447305,41.784903,1376.340261],[2.447648,41.784855,1368.530558],[2.447813,41.784871,1366.21597],[2.448014,41.784836,1361.91217],[2.448136,41.784885,1361.992322],[2.448269,41.784826,1357.542486],[2.448404,41.784789,1354.109594],[2.448567,41.784782,1351.053703],[2.44864,41.78481,1350.636586],[2.448709,41.784824,1349.807493],[2.448827,41.78482,1347.544856],[2.448919,41.784836,1346.520283],[2.448969,41.784786,1343.816324],[2.449121,41.784783,1340.892196],[2.449324,41.784818,1338.562424],[2.449394,41.784815,1337.397276],[2.4496,41.784782,1333.333716],[2.449737,41.784783,1331.44377],[2.449943,41.784761,1327.81036],[2.450136,41.784721,1323.685065],[2.450373,41.784639,1317.826363],[2.45055,41.784606,1314.239734],[2.450714,41.784611,1312.010459],[2.450798,41.784601,1310.600546],[2.450985,41.784554,1307.065904],[2.450999,41.784536,1306.359948],[2.451112,41.784515,1304.601801],[2.451147,41.784479,1303.212061],[2.451147,41.784479,1303.212061],[2.45117,41.784455,1302.36094],[2.4512,41.784385,1300.159],[2.451211,41.784306,1297.938799],[2.451251,41.783844,1285.572805],[2.451204,41.783478,1277.225646],[2.451249,41.783278,1272.585385],[2.451472,41.782675,1258.308897],[2.45145,41.782577,1256.031518],[2.45145,41.782577,1256.031518],[2.45145,41.782577,1256.031518],[2.451381,41.782277,1248.647793],[2.451359,41.781942,1240.688013],[2.451331,41.781905,1240.196795],[2.451331,41.781905,1240.196795],[2.451122,41.781624,1237.254121],[2.451017,41.781499,1235.483973],[2.450926,41.781271,1231.466713],[2.450926,41.781271,1231.466713],[2.450825,41.781149,1228.13396],[2.450683,41.78106,1222.520558],[2.450546,41.780996,1219.632686],[2.450475,41.78099,1219.728469],[2.45049,41.781021,1220.889322],[2.450326,41.780986,1219.960852],[2.450303,41.780943,1218.670629],[2.450277,41.780936,1218.560611],[2.450277,41.780936,1218.560611],[2.450265,41.780932,1218.494179],[2.450251,41.780902,1218.064286],[2.45025,41.780886,1218.103422],[2.450294,41.780765,1217.993774],[2.450386,41.780707,1216.668884],[2.450489,41.780628,1215.363059],[2.450624,41.780471,1214.25416],[2.450792,41.780346,1212.96237],[2.450792,41.780346,1212.96237],[2.450923,41.780249,1212.491992],[2.450996,41.780251,1211.574911],[2.451218,41.780255,1209.063369],[2.451526,41.780277,1206.377475],[2.451647,41.780278,1205.634063],[2.451699,41.780243,1205.447737],[2.45176,41.780237,1204.960637]]}},{"type":"Feature","properties":{"name":"Turó de l'Home"},"geometry":{"type":"Point","coordinates":[2.435012,41.776549,1700.042522]}},{"type":"Feature","properties":{"name":"Les Agudes"},"geometry":{"type":"Point","coordinates":[2.443917,41.789302,1699.771344]}},{"type":"Feature","properties":{"name":"Parking"},"geometry":{"type":"Point","coordinates":[2.4518,41.780234,1204.645064]}}]}